[
    {
        "Altitude(m)": 617710.6739527436,
        "Argument of Periapsis(deg)": 0.0,
        "Eccentricity": 0.0,
        "Inclination(deg)": 60.0,
        "Latitude(deg)": -41.10275297676799,
        "Longitude(deg)": -5.033249876961334,
        "Mean Anomaly(deg)": -49.09089999999994,
        "RAAN(deg)": 125.00000000000001,
        "Satellite Name": "Test1 569",
        "Satellite Number": 569,
        "Semi-Major Axis(m)": 6980739.136638005,
        "Time(s)": 0
    },
    {
        "Altitude(m)": 617517.9719198714,
        "Argument of Periapsis(deg)": 0.00010418945913296404,
        "Eccentricity": 0.0,
        "Inclination(deg)": 60.0,
        "Latitude(deg)": -40.63695873479981,
        "Longitude(deg)": -4.5364575455444,
        "Mean Anomaly(deg)": -48.470793854538094,
        "RAAN(deg)": 124.99957995086027,
        "Satellite Name": "Test1 569",
        "Satellite Number": 569,
        "Semi-Major Axis(m)": 6980739.136638005,
        "Time(s)": 10
    }
]